LON,LAT,location_type,icon_type,nursery_code,name,physical_street,mailing_street,city,state,zip,phone,fax,email,website,treefruiticon,smallfruiticon,nuticon,suppliesicon,apples,blackberries,blueberries,cherries,currants,elderberries,figs,gooseberries,grapes,jujubes,kiwi,nectarines,pawpaws,peaches,pears,persimmons,plums,raspberries,strawberries,butternuts,chinese_chestnuts,hazelnuts_filberts,heartnuts,hicans,hickory_shagbark,hickory_shellbark,hickory_hybrid,pecan_northern,walnuts_black,walnuts_PersianHardyEnglish,almonds
-77.214752,39.97148,nursery_source,F,AD,"Adams County Nursery, Inc.",26 Nursery Road,P.O. Box 108,Aspers,PA,17304,717-677-8105,717-677-4124,can@cvn.net,http://www.acnursery.com,./icons/treefruit-icon.png,./icons/none.png,./icons/none.png,./icons/supplies-icon.png,"<b>Apples</b> (* = disease resistant) Ambrosia - Antique, Hard Cider or Heirloom Cultivars - Arkansas Black - Blondee - Cameo  - Red Cameo - Cortland - Royal Court  - Crimson Crisp * - Empire - Crown Empire - Royal Empire - Enterprise * - Freedom * - Daybreak Fuji - Autumn Gala - Buckeye Gala (Simmons Cultivar) - Fulford Gala - Wildfire Gala - Ginger Gold - DA ROSA - Gibson Strain - GoldRush * - Granny Smith - Grimes Golden  - Honeycrisp - Firestorm - Jonagold De Coster - Wilton's Red Jonaprince  - Jonamac - Improved Red Jonathan - Liberty * - Lodi - RubyMac - Mollies Delicious - Mutsu (Crispin) - Pink Lady (Cripps Pink) - Barnsby Cultivar - Pristine * - Super Chief Red Delicious - Redfree * - Law Red Rome - Shizuka - Suncrisp - WineCrisp * - Yellow Transparent - Red Yorking - Zestar!<br>",,,<b>Cherries</b> Hartland - Hedelfingen - Kristin - Balaton<br>,,,,,,,,<b>Nectarines:</b> Ambre - Avalon - Brigantine - Easternglo - Fantasia - Flavortop - Nectafest - Red Gold - Sunglo - Arctic Glo - Emeraude - Jade - SilverGem - SilverGlo - Zephyr<br>,,<b>Peaches</b> Allstar - Autumnstar - Blazingstar - Bounty - Canadian Harmony - Contender - Coralstar - Cresthaven - Desiree - Earlystar - Encore - Ernie's Choice - Garnet Beauty  - Glenglo - Glohaven - Gloria - Glowingstar - John Boy - John Boy II - July Prince - Laurol - Loring - Madison - Messina - PF 15A Flamin' Fury - PF 17 Flamin'Fury - PF 19-007 Flamin' Fury - PF 23 Flamin' Fury - PF 27A Flamin' Fury - PF 28-007 Flamin' Fury - PF 5D Big Flamin' Fury - PF 8 Ball Flamin' Fury - PF 9A-007 Flamin' Fury - PF Lucky 13 Flamin' Fury - Redhaven - Redskin - Reliance - Selena - Sentry - Starfire - Summer Serenade - Sweet-N-Up - Victoria - August Rose - Blushingstar - N.J. 252 - Raritan Rose - September Snow - Snow Giant - Sugar Giant - Sugar May - White Lady - BuenOs - BuenOs II - Galaxy - Saturn - TangOs - TangOs II<br>,<b>Pears</b> AC Harrow Crisp - Blake's Pride - Potomac - Seckel - Shenandoah - Sunrise - Megietsu - Shinko<br>,,<b>Plums</b> Methley - Queen Rosa - Ruby Queen - Santa Rosa - Shiro - Bluebyrd - Castleton - Kenmore (NY9) - Long John - Stanley - Valor - Victory - Vision<br>,,,,,,,,,,,,,,
-74.5283351,39.8202153,nursery_source,F,AM,"A.G. Ammon Nursery, Inc.",1610 Rt. 532,P.O. Box 488,Chatsworth,NJ,08019-0488,609-726-1370,609-726-1270,orders@ammonnursery.com,http//www.ammonnursery.com,./icons/none.png,./icons/smallfruit-icon.png,./icons/none.png,./icons/none.png,,,<b>Blueberries</b> (* = wholesale only) Bluecrop - Bluejay - Blueray - Chandler - Darrow - Duke - Earliblue - Elliott - Jersey - Legacy - Nelson - Patriot - Sierra - Spartan<br>,,,,,,,,,,,,,,,,,,,,,,,,,,,,
-77.1081279,42.918388,nursery_source,F,AG,Amberg Grapvines,2399 Wheat Road,,Clifton Springs,NY,14432-931,315-462-3288,,office@amberggrapevines.com,http://www.amberggrapevines.com,./icons/none.png,./icons/smallfruit-icon.png,./icons/none.png,./icons/none.png,,,,,,,,,<b>Grapes</b> Corot Noir - Aromella (NY76.0844.24) - Chardonel - Frontenac Gris<br>,,,,,,,,,,,,,,,,,,,,,,
-86.1197621,42.387001,nursery_source,F,BA,Barwacz Farms,5146 59th Street,,Grand Junction,MI,49056,888-511-4419,269-253-4495,info@barwaczfarm.com,http://www.barwaczfarm.com,./icons/none.png,./icons/smallfruit-icon.png,./icons/none.png,./icons/none.png,,,<b>Blueberries</b> (* = wholesale only) Aurora - Bluecrop - Bluejay - Blueray - Brigitta - Chandler - Draper - Duke - Elliott - Jersey - Liberty - Nelson - Patriot - Sierra - Spartan<br>,,,,,,,,,,,,,,,,,,,,,,,,,,,,
-122.7559267,45.2309536,nursery_source,F,BG,Bunch Grapes,P.O. Box 365,P.O. Box 365,Aurora,OR,97002-0365,503-678-1410,,ionrom@bunchgrapes.com,http://www.bunchgrapes.com,./icons/none.png,./icons/smallfruit-icon.png,./icons/none.png,./icons/none.png,,,,,,,,,<b>Grapes</b> Chancellor - Concord - Frontenac - Marechal Foch - Golden Muscat - Seyval blanc - Vidal blanc - Buffalo - Concord - Mars - Reliance - Vanessa<br>,,,,,,,,,,,,,,,,,,,,,,
-81.5109405,36.4992896,nursery_source,F,BI,Big Horse Creek Farm,P.O. Box 70,P.O. Box 70,Lansing,NC,28643,336-384-1134,,oldapple@bighorsecreekfarm.com,http://www.bighorsecreekfarm.com,./icons/treefruit-icon.png,./icons/none.png,./icons/none.png,./icons/none.png,"<b>Apples</b> (* = disease resistant) Antique, Hard Cider or Heirloom Cultivars - Arkansas Black - Cortland - Early Harvest - Golden Delicious (Yellow Delicious) - Granny Smith - Grimes Golden  - Honeycrisp - Jonathan (Plant red strains) - King David ** - Liberty * - Polly Eades - Razor Russet - Red June (Carolina Red June) - Roxbury Russet - Yellow Transparent - York (York Imperial)<br>",,,,,,,,,,,,,,,,,,,,,,,,,,,,,,
-86.3827179,36.9396958,nursery_source,F,BL,Bluegrass Blueberries,618 Roy Thomas Road,,Bowling Green,KY,42103,270-432-5836,,blueberrynurseryky@gmail.com,http://www.bluegrassblueberries.com,./icons/none.png,./icons/smallfruit-icon.png,./icons/none.png,./icons/none.png,,,<b>Blueberries</b> (* = wholesale only) Bluecrop - Bluejay - Blueray - Chandler - Duke - Earliblue - Elliott - Legacy - Nelson - Patriot - Spartan - Misty<br>,,,,,,,,,,,,,,,,,,,,,,,,,,,,
-94.137719,35.7268061,nursery_source,F,BM,Boston Mountain Nurseries,20189 North Hwy 71,P.O. Box 308,Mountainburg,AR,72946,479-369-2007,,bostonmountainnurseries@centurylink.net,http://www.alcasoft.com/bostonmountain,./icons/none.png,./icons/smallfruit-icon.png,./icons/none.png,./icons/none.png,,<b>Blackberries</b> Apache - Natchez - Osage - Ouachita - Triple Crown - Prime-Ark Traveler<br>,<b>Blueberries</b> (* = wholesale only) Bluecrop - Bluejay - Blueray - Chandler - Duke - Earliblue - Jersey - Legacy - Nelson - Patriot - Sierra - Misty - Climax<br>,,,,<b>Figs</b> Celeste<br>,,<b>Grapes</b> Chambourcin - Concord - Cynthiana - Cayuga - Concord - Mars - Sunbelt - Vanessa<br>,,,,,,,,,<b>Raspberries</b> Boyne - Nova - Prelude - Caroline - Heritage<br>,,,,,,,,,,,,,
-122.6181347,46.5820246,nursery_source,F,BR,"Burnt Ridge Nursery and Orchards, Inc",432 Burnt Ridge Road,,Onalaska,WA,98570,360-985-2873,360-985-0882,mail@burntridgenursery.com,http://www.burntridgenursery.com,./icons/treefruit-icon.png,./icons/smallfruit-icon.png,./icons/nut-icon.png,./icons/none.png,"<b>Apples</b> (* = disease resistant) Antique, Hard Cider or Heirloom Cultivars - Arkansas Black - Enterprise * - Freedom * - Auvil Early Fuji - Buckeye Gala (Simmons Cultivar) - Gibson Strain - Granny Smith - Honeycrisp - Liberty * - Pink Lady (Cripps Pink) - Spartan * - Yellow Transparent - Rootstocks<br>",<b>Blackberries</b> Triple Crown<br>,<b>Blueberries</b> (* = wholesale only) Aurora - Bluecrop - Bluejay - Chandler - Darrow - Draper - Duke - Earliblue - Elliott - Jersey - Legacy - Liberty - Nelson - Patriot - Reka - Spartan - Misty - Star<br>,<b>Cherries</b> Sam - Montmorency - North Star - Rootstocks<br>,<b>Currants</b> Consort - Minaj Smeriou - Titania - Rovada - White Imperial<br>,<b>Elderberries</b> Nova - York<br>,<b>Figs</b> Chicago Hardy<br>,<b>Gooseberries</b> Black Velvet - Captivator - Hinnomaki Red - Invicta - Pixwell<br>,<b>Grapes</b> Concord - Reliance - Vanessa<br>,<b>JuJubes</b> Chico - Sugar Cane<br>,<b>Kiwi</b> Ananasnaya Female - Chang Bai Hardy - Chico 74-49 Hardy Female - Hardy Kiwi Male - Issai Hardy Female - Kens Red Hardy Female - My Sweet Chico Female Hardy<br>,<b>Nectarines:</b> Harko - Mericrest<br>,<b>Pawpaws</b> NC-1 - Pennsylvania Golden - Shenandoah - Sunflower<br>,<b>Peaches</b> Contender - Redhaven - Reliance - Saturn<br>,<b>Pears</b> Moonglow - Seckel - Shinko<br>,<b>Persimmons</b> Early Golden - Nikita's Gift (Asian-American Hybrid)<br>,,<b>Raspberries</b> Boyne - Jewel - Caroline<br>,<b>Strawberries</b> Albion<br>,,,,,,,,,,,,
-119.1567811,46.490427,nursery_source,F,CM,"Cameron Nursery, Inc",1261 Ringold Road,,Eltopia,WA,99330,509-266-4669,,cnsales@fastmail.com,http://www.cameronnursery.com,./icons/treefruit-icon.png,./icons/none.png,./icons/none.png,./icons/none.png,<b>Apples</b> (* = disease resistant) Ambrosia - Aztec Fuji - Buckeye Gala (Simmons Cultivar) - Gibson Strain - Granny Smith - Honeycrisp - Rootstocks<br>,,,<b>Cherries</b> Balaton - Montmorency - Rootstocks<br>,,,,,,,,,,,,,,,,,,,,,,,,,,,
-79.4853568,36.3190893,nursery_source,F,CN,Century Farm Orchards,1614 Rice Road,P.O. Box 271,Altamahaw,NC,27202,336-349-5709,,david@centuryfarmorchards.com,http://www.centuryfarmorchards.com,./icons/treefruit-icon.png,./icons/none.png,./icons/none.png,./icons/none.png,"<b>Apples</b> (* = disease resistant) Antique, Hard Cider or Heirloom Cultivars - Arkansas Black - Early Harvest - Enterprise * - Florina - Freedom * - Fuji - Gala - GoldRush * - Granny Smith - Grimes Golden  - Jonagold  (Plant red strains) - King David ** - Liberty * - Mollies Delicious - Mutsu (Crispin) - Pink Lady (Cripps Pink) - Razor Russet - Red Delicious - Redfree * - Red June (Carolina Red June) - Rome - Roxbury Russet - Suncrisp - Yellow Transparent - York (York Imperial) - Rootstocks<br>",,,,,,<b>Figs</b> Celeste<br>,,,,,,,,<b>Pears</b> Kieffer - Moonglow - Seckel - Korean Giant (Olympic) - Niitaka - Rootstocks<br>,,,,,,,,,,,,,,,,
-120.3325145,47.4475002,nursery_source,F,CO,C & O Nursery,1700 N Wenatchee Ave,P.O. Box 116,Wenatchee,WA,98807-0116,509-662-7164,509-662-4519,tree@c-onursery.com,http://www.c-onursery.com,./icons/treefruit-icon.png,./icons/none.png,./icons/none.png,./icons/none.png,<b>Apples</b> (* = disease resistant) Aztec Fuji - September Wonder Fuji - Buckeye Gala (Simmons Cultivar) - Pacific Gala - Granny Smith - Honeycrisp - Royal Red Honeycrisp - RubyMac - Pink Lady (Cripps Pink) - Barnsby Cultivar - Rootstocks<br>,,,<b>Cherries</b> Black Pearl - Regina - Sam - Montmorency - Rootstocks<br>,,,,,,,,,,,,,,,,,,,,,,,,,,,
-76.5484167,42.4714365,nursery_source,F,CU,Cummins Nursery,1408 Trumansburg Road,,Ithaca,NY,14850,607-269-7664,607-227-1799,cumminsnursery@gmail.com,http://www.cumminsnursery.com,./icons/treefruit-icon.png,./icons/none.png,./icons/none.png,./icons/none.png,"<b>Apples</b> (* = disease resistant) Antique, Hard Cider or Heirloom Cultivars - Enterprise * - Fuji - GoldRush * - Honeycrisp - Jonagold  (Plant red strains) - King David ** - Liberty * - Mutsu (Crispin) - Pink Lady (Cripps Pink) - Pristine * - Sir Prize * - Suncrisp - Sundance * - Sundowner - WineCrisp * - Yellow Transparent - Zestar! - Rootstocks<br>",,,<b>Cherries</b> Black Gold - Black Pearl - Hedelfingen - White Gold - Balaton - Danube - Montmorency<br>,,,,,,,,<b>Nectarines:</b> Easternglo<br>,,<b>Peaches</b> Autumnstar - Bounty - Candor - Contender - Coralstar - Cresthaven - Desiree - Early Redhaven - Earlystar - Garnet Beauty  - Glohaven - Glowingstar - Harrow Diamond - Intrepid - John Boy - Laurol - Loring - Madison - PF 1 Flamin' Fury - PF 15A Flamin' Fury - PF 17 Flamin'Fury - PF 19-007 Flamin' Fury - PF 23 Flamin' Fury - PF 24C Flamin' Fury - PF 25 Flamin' Fury - PF 28-007 Flamin' Fury - PF 5D Big Flamin' Fury - PF Big George Flamin'Fury - PF 8 Ball Flamin' Fury - PF Lucky 13 Flamin' Fury - Redhaven - Redskin - Reliance - Risingstar - Sentry - Blushingstar - N.J. 252 - Raritan Rose - BuenOs II - Galaxy - Saturn - TangOs II<br>,<b>Pears</b> Blake's Pride - Potomac - Seckel - Shenandoah - Sunrise - Niitaka - Shinko - Rootstocks<br>,,<b>Plums</b> Methley - Ozark Premier - Santa Rosa - Shiro - Bluebyrd - Blues Jam - Castleton - Damson - Empress - Kenmore (NY9) - Long John - Oullins Golden Gage - President - Seneca - Stanley - Valor - Victory - Vision - Rootstocks<br>,,,,,,,,,,,,,,
-93.4041844,35.5227645,nursery_source,F,CX,Cox Berry Farm & Nursery,1081 Hwy 818,,Clarksville,AR,72830,479-754-3707,,,http://www.coxberryfarm.com,./icons/treefruit-icon.png,./icons/smallfruit-icon.png,./icons/none.png,./icons/none.png,,<b>Blackberries</b> Apache - Natchez - Osage - Ouachita<br>,,,,,,,,,,,,<b>Peaches</b> Allstar - Glohaven - July Prince - PF 15A Flamin' Fury - Redhaven - Starfire<br>,,,,,,,,,,,,,,,,,
-86.1150312,42.0525622,nursery_source,F,DA,Daisy Farms,28355 M-152,,Dowagiac,MI,49047,269-782-6321,269-782-7131,daisyfarms@qtm.net,http://www.daisyfarms.net,./icons/none.png,./icons/smallfruit-icon.png,./icons/none.png,./icons/none.png,,<b>Blackberries</b> Triple Crown<br>,<b>Blueberries</b> (* = wholesale only) Bluecrop - Blueray - Draper - Duke - Elliott<br>,,,,,<b>Gooseberries</b> Captivator - Hinnomaki Red - Invicta - Pixwell<br>,<b>Grapes</b> Concord<br>,,,,,,,,,<b>Raspberries</b> Jewel - Heritage<br>,<b>Strawberries</b> Allstar - Cavendish - Chandler - Earliglow - Honeoye - Jewel - Redchief - AC Wendy - Albion<br>,,,,,,,,,,,,
-86.2851268,42.3666272,nursery_source,F,DG,DeGrandchamp Farms,76241 14th Ave,,South Haven,Mi,49090,269-637-3915,,info@degrandchamps.com,http://www.degrandchamps.com,./icons/none.png,./icons/smallfruit-icon.png,./icons/none.png,./icons/none.png,,,<b>Blueberries</b> (* = wholesale only) Aurora - Bluecrop - Bluejay - Blueray - Draper - Duke - Elliott - Jersey - Legacy - Liberty - Nelson - Patriot - Spartan<br>,,,,,,,,,,,,,,,,,,,,,,,,,,,,
-79.2962453,42.447592,nursery_source,F,DV,Double A Vineyards,10277 Christy Road,,Fredonia,NY,14063,716-672-8493,716-679-3442,,http://www.doubleavineyards.com,./icons/none.png,./icons/smallfruit-icon.png,./icons/none.png,./icons/supplies-icon.png,,<b>Blackberries</b> Ouachita - Chester - Triple Crown<br>,<b>Blueberries</b> (* = wholesale only) Bluecrop - Duke - Earliblue - Jersey<br>,,<b>Currants</b> Consort - White Imperial<br>,<b>Elderberries</b> Adams #1 - Johns - Nova - Wyldewood 1 - York<br>,,<b>Gooseberries</b> Hinnomaki Red - Pixwell<br>,<b>Grapes</b> Chancellor - Concord - Frontenac - Geneva Red (GR-7) - Marechal Foch - Noiret (NY73.0136.17) - Norton (Cynthiana) - Regent - St. Vincent - Aromella (NY76.0844.24) - Catawba - Chardonel - Diamond - Niagara - Opportunity - Seyval blanc - Traminette - Vidal blanc - Vignoles - Villard blanc - Buffalo - Concord - Jupiter - Marquis - Mars - Reliance<br>,,,,,,,,,<b>Raspberries</b> Killarney - Latham - Nova - Prelude - Bristol  - Jewel - BP-1 - Caroline - Heritage - Himbo Top - Joan J - Polana - Anne - Niwot<br>,,,,,,,,,,,,,
-78.8579133,37.9513137,nursery_source,F,ED,Edible Landscaping,361 Spirit Ridge Lane,,Afton,VA,22920,434-361-9134,434-361-1916,info@ediblelandscaping.com,http://www.ediblelandscaping.com,./icons/treefruit-icon.png,./icons/smallfruit-icon.png,./icons/none.png,./icons/none.png,"<b>Apples</b> (* = disease resistant) Antique, Hard Cider or Heirloom Cultivars - Arkansas Black - Enterprise * - King David ** - Liberty * - Pristine *<br>",<b>Blackberries</b> Kiowa - Triple Crown<br>,<b>Blueberries</b> (* = wholesale only) Draper - Legacy - Reka - Arlen - Star - Climax<br>,<b>Cherries</b> Kristin - Sam - White Gold - Montmorency<br>,,<b>Elderberries</b> Adams #1 - Bob Gordon - Johns - Nova<br>,,<b>Gooseberries</b> Black Velvet - Hinnomaki Red - Invicta - Jahns Prairie - Jeanne<br>,<b>Grapes</b> Concord - Cynthiana - Norton (Cynthiana) - Niagara - Villard blanc - Concord - Mars<br>,<b>JuJubes</b> Honey Jar - Li  - SO - Sugar Cane<br>,<b>Kiwi</b> Anna Hardy Female - Arbor-eat-um NA-7 Hardy Female - Dumbarton Oaks Hardy Female - Fifty five Hardy Female - Fortyniner Hardy Female - Geneva Hardy Female - Hardy Meader Male - Issai Hardy Female - Kens Red Hardy Female - Meyer's Cordifolia Hardy Female - MSU Female - 74-32 Hardy Male - 74-46 Hardy Male<br>,,<b>Pawpaws</b> Allegheny - Mango - NC-1 - Overleese - Potomac - Shenandoah - Susquehanna - Wabash<br>,<b>Peaches</b> Redhaven - Belle of Georgia<br>,<b>Pears</b> Blake's Pride - Honeysweet - Potomac - Shenandoah - Korean Giant (Olympic)<br>,<b>Persimmons</b> Meader - Prok - Rosseyanka (Asian-American Hybrid) - Weber - Yates<br>,<b>Plums</b> Methley - President - Stanley<br>,<b>Raspberries</b> Jewel - Caroline - Heritage<br>,<b>Strawberries</b> Chandler - Earliglow - Sweet Charlie<br>,,,<b>Hazelnuts & Filberts</b> Dorris - Felix - Jefferson - McDonald - Poly O Fllbert - Wepster - Yamhill - York<br>,,,,,,<b>Northern Pecan</b> Hardy - Kanza<br>,,,
-119.291147,35.6151117,nursery_source,F,EM,Early Morning Fruit Nursery,30135 McCombs Road,,Wasco,CA,93280,845-249-9004,,,http://www.earlymorningnursery.com,./icons/treefruit-icon.png,./icons/none.png,./icons/none.png,./icons/none.png,<b>Apples</b> (* = disease resistant) Bakers Delight - Crunch-A-Bunch - Pixie Crunch * - Sundance * - Rootstocks<br>,,,,,,,,,,,,,,,,,,,,,,,,,,,,,,
-84.104303,37.521375,nursery_source,F,EN,England's Orchard and Nursery,2338 Highway 2004,,McKee,KY,40447-8342,606-965-2228,,nuttrees@prtcnet.org,http://www.nuttrees.net,./icons/treefruit-icon.png,./icons/none.png,./icons/nut-icon.png,./icons/supplies-icon.png,"<b>Apples</b> (* = disease resistant) Antique, Hard Cider or Heirloom Cultivars - Empire - Grimes Golden  - Liberty * - Priscilla *<br>",,,,,,,,,<b>JuJubes</b> Chico - Ga-866 - Honey Jar - Lang - Li  - Sherwood - SO - Sugar Cane<br>,,,<b>Pawpaws</b> Allegheny - Jerry's Delight - KSU - Benson - KSU - Chappell  - Maria's Joy - Potomac - Shenandoah - Summer Delight - Susquehanna - Tallahatchie - Wabash - Premium Seed<br>,,<b>Pears</b> Korean Giant (Olympic)<br>,<b>Persimmons</b> Barbra's Blush - Celebrity - Claypool - David's Candy (Hybrid) - Deer Candy - Deer Magnet - Dollywood - Early Golden - Elmo A-118 - H-63A - Kasandra (Asian-American Hybrid) - Lehman's Delight - Mohler - Osage - Prok - Wonderful - Yates<br>,,,,,,<b>Hazelnuts & Filberts</b> Felix - Jefferson - Sacajawea<br>,,,,,,<b>Northern Pecan</b> Kanza - Mandan<br>,,,<b>Almonds:</b> Javid's Iranian<br>
-122.8106051,43.9578581,nursery_source,F,FC,Fall Creek Farm & Nursery,39218 Jasper-Lowell Road,,Lowell,OR,97452,541-937-2973,541-937-2973,,http://www.fallcreeknursery.com,./icons/none.png,./icons/smallfruit-icon.png,./icons/none.png,./icons/supplies-icon.png,,,<b>Blueberries</b> (* = wholesale only) Aurora - Bluecrop - Bluegold - Draper - Duke - Elliott - Legacy - Liberty - Misty - Star<br>,,,,,,,,,,,,,,,,,,,,,,,,,,,,
-78.1067103,35.8207741,nursery_source,F,FI,Finch Blueberry Nursery,5714 Finch Nursery Lane,P.O. Box 699,Bailey,NC,27807,252-235-4664,252-235-2411,finchnursery@earthlink.net,http://www.finchblueberrynursery.com,./icons/none.png,./icons/smallfruit-icon.png,./icons/none.png,./icons/none.png,,,<b>Blueberries</b> (* = wholesale only) Bluecrop - Bluegold - Bluejay - Blueray - Chandler - Duke - Echota - Elliott - Jersey - Legacy - Patriot - Spartan - Arlen - Misty - Pamlico - Sampson - Brightwell - Climax - Delite - Onslow<br>,,,,,,,,,,,,,,,,,,,,,,,,,,,,
-90.7850179,39.1457322,nursery_source,F,FK,Forrest Keeling Nursery,88 Forrest Keeling Lane,,Elsberry,MO,63343,800-356-2401,,info@fknursery.com,http://www.fknursery.com,./icons/treefruit-icon.png,./icons/none.png,./icons/nut-icon.png,./icons/none.png,,,,,,,,,,,,,<b>Pawpaws</b> Allegheny - Mango - NC-1 - Overleese - Pennsylvania Golden - Potomac - Shenandoah - Sunflower - Susquehanna - Wabash<br>,,,,,,,,<b>Chinese Chestnuts</b> Eaton River - Qing - Sleeping Giant<br>,,,,,,,,,,
-85.8867181,35.3151579,nursery_source,F,FT,Freedom Tree Farms,1147 US-41,P.O. Box 69,Pelham,TN,37366,931-467-3600,,sales@freedomtreefarms.com,http://www.freedomtreefarms.com,./icons/treefruit-icon.png,./icons/smallfruit-icon.png,./icons/none.png,./icons/supplies-icon.png,<b>Apples</b> (* = disease resistant) Fuji - Gala - Golden Delicious (Yellow Delicious) - Granny Smith - Honeycrisp<br>,<b>Blackberries</b> Apache - Ouachita - Triple Crown<br>,<b>Blueberries</b> (* = wholesale only) Brigitta - Duke - Jersey - Patriot - Brightwell - Climax<br>,,,,<b>Figs</b> Celeste<br>,,<b>Grapes</b> Concord - Mars<br>,,,,,<b>Peaches</b> Contender - Cresthaven - July Prince - Redhaven - Redskin<br>,<b>Pears</b> Ayers - Kieffer - Moonglow<br>,,,<b>Raspberries</b> Heritage<br>,,,,,,,,,,,,,
-82.3724258,43.0127594,nursery_source,F,GI,Grimo Nut Nursery,979 Lakeshore Road,R.R. 3 Niagara-On-The-Lake,Ontario,Canada,LOD 1JO,905-934-6887,905-935-6687,nuttrees@grimonut.com,http://www.grimonut.com,./icons/treefruit-icon.png,./icons/none.png,./icons/nut-icon.png,./icons/supplies-icon.png,,,,,,,<b>Figs</b> Chicago Hardy<br>,,,,,,,,,<b>Persimmons</b> Yates<br>,,,,<b>Butternuts</b> Beckwith - Kenworthy<br>,,,<b>Heartnuts</b> Grimo  - Imshu - Simcoe - Stealth<br>,<b>Hicans</b> Burton<br>,<b>Shagbark Hickory</b> Grainger - J. Yoder #1 - Porter - Weschcke<br>,<b>Shellbark Hickory</b> Fayette - Henry - Keystone<br>,,,,,
-86.308356,42.1861494,nursery_source,F,GO,Grandpa's Orchard LLC ,P.O. Box 773,P.O. Box 773,Coloma,MI,49038,877-800-0077,269-468-6510,customercare@grandpasorchard.com,http://www.grandpasorchard.com,./icons/treefruit-icon.png,./icons/none.png,./icons/none.png,./icons/none.png,"<b>Apples</b> (* = disease resistant) Ambrosia - Antique, Hard Cider or Heirloom Cultivars - Arkansas Black - Blondee - Cameo  - Cortland - Crimson Crisp * - Empire - Enterprise * - Fuji - Auvil Early Fuji - Gala - Golden Delicious (Yellow Delicious) - GoldRush * - Granny Smith - Grimes Golden  - Honeycrisp - Royal Red Honeycrisp - Jonagored - Jonathan (Plant red strains) - King David ** - Liberty * - Lodi - Melrose - Mutsu (Crispin) - Nittany - Pink Lady (Cripps Pink) - Lady in Red - Red Delicious - Redfield ** - Rome - Roxbury Russet - Zestar!<br>",,,<b>Cherries</b> Black Gold - Black Pearl - Regina - Sam - White Gold - Balaton - Danube - Montmorency<br>,,,,,,,,<b>Nectarines:</b> Fantasia - Firebrite - Flavortop - Hardired - Red Gold - Arctic Glo<br>,,<b>Peaches</b> Allstar - Autumnstar - Canadian Harmony - Contender - Coralstar - Cresthaven - Desiree - Earlystar - Encore - Glenglo - Glohaven - Gloria - Glowingstar - Loring - Madison - Messina - PF 23 Flamin' Fury - PF 27A Flamin' Fury - PF 28-007 Flamin' Fury - PF 5D Big Flamin' Fury - PF Big George Flamin'Fury - PF 9A-007 Flamin' Fury - PF Lucky 13 Flamin' Fury - Redhaven - Redskin - Risingstar - Starfire - Sweet-N-Up - Belle of Georgia - Blushingstar - Raritan Rose - Galaxy - Saturn<br>,<b>Pears</b> Blake's Pride - Potomac - Seckel - Shenandoah - Sunrise - Shinko<br>,,<b>Plums</b> Methley - Ruby Queen - Santa Rosa - Shiro - Bluebyrd - Kenmore (NY9) - Long John - President - Stanley - Valor - Victory<br>,,,,,,,,,,,,,,
-84.8641178,39.1125572,nursery_source,F,GU,Gurney's Seed & Nursery Co,P.O. Box 4178,P.O. Box 4178,Greendale,IN,47025-4178,513-354-1491,513-354-1493,,http://www.gurneys.com,./icons/treefruit-icon.png,./icons/smallfruit-icon.png,./icons/nut-icon.png,./icons/supplies-icon.png,<b>Apples</b> (* = disease resistant) Arkansas Black - Bakers Delight - Crunch-A-Bunch - Fuji - Gala - Golden Delicious (Yellow Delicious) - GoldRush * - Granny Smith - Honeycrisp - Liberty * - Pixie Crunch * - Pristine * - Sundance *<br>,<b>Blackberries</b> Apache - Natchez - Ouachita - Triple Crown - Black Magic<br>,<b>Blueberries</b> (* = wholesale only) Bluecrop - Chandler - Jersey - Patriot - Reka - Titan<br>,,,,<b>Figs</b> Celeste - Chicago Hardy<br>,,,,,<b>Nectarines:</b> Mericrest - Yumm Yumm<br>,,<b>Peaches</b> Contender - Reliance - Belle of Georgia - Flat Wonderful<br>,<b>Pears</b> Crisp 'n Sweet - Honeysweet - Moonglow - Korean Giant (Olympic)<br>,,<b>Plums</b> Blue Damson - Stanley<br>,<b>Raspberries</b> Boyne - Latham - Nova - Prelude - Jewel - Caroline - Crimson Night - Heritage - Anne<br>,<b>Strawberries</b> Allstar - Chandler - Earliglow - Flavorfest - Honeoye - Jewel - Albion - Ft. Laramie<br>,,,,,,,,,,,,
-86.1259786,40.7238507,nursery_source,F,IB,Indiana Berry & Plant Co,2811 US 31,,Plymouth,IN,46563,800-295-2226,574-784-2468,info@indianaberry.com,http://www.indianaberry.com,./icons/none.png,./icons/smallfruit-icon.png,./icons/none.png,./icons/none.png,,<b>Blackberries</b> Chickasaw - Kiowa - Shawnee - Apache - Caddo - Natchez - Osage - Ouachita - Von - Triple Crown - Prime ARK 45 - Prime-Ark Traveler<br>,<b>Blueberries</b> (* = wholesale only) Bluecrop - Blueray - Chandler - Draper - Duke - Elliott - Jersey - Liberty - Nelson - Patriot - Spartan - Climax - Onslow<br>,,<b>Currants</b> Crandall - Consort - Titania - Jonkeer Van Tets - Rovada - Primus - White Imperial - Pink Champagne<br>,,,<b>Gooseberries</b> Amish Red - Black Velvet - Captivator - Hinnomaki Red - Hinnomaki Yellow - Invicta - Jahns Prairie - Pixwell - Poorman<br>,<b>Grapes</b> Traminette - Concord - Reliance - Vanessa<br>,,,,,,,,,<b>Raspberries</b> Boyne - Encore - Killarney - Nova - Prelude - Royalty - Bristol  - Jewel - Mac Black - Caroline - Crimson Night - Heritage - Joan J - Polana - Anne - Double Gold - Niwot<br>,<b>Strawberries</b> Allstar - Cavendish - Chandler - Earliglow - Flavorfest - Galletta - Honeoye - Jewel - AC Valley Sunset - AC Wendy - Albion - San Andreas<br>,,,,,,,,,,,,
-84.4630424,33.2500044,nursery_source,F,IN,Ison's Nursery & Vineyards,6855 Newnan Road,P.O. Box 190,Brooks,GA,30205,800-733-0324,770-599-6970,,http://www.isons.com,./icons/treefruit-icon.png,./icons/smallfruit-icon.png,./icons/nut-icon.png,./icons/supplies-icon.png,"<b>Apples</b> (* = disease resistant) Antique, Hard Cider or Heirloom Cultivars - Arkansas Black - Fuji - Gala - Golden Delicious (Yellow Delicious) - Granny Smith - Honeycrisp - Mutsu (Crispin) - Pink Lady (Cripps Pink) - Red Delicious - Sundowner<br>",<b>Blackberries</b> Chickasaw - Apache - Caddo - Natchez - Ouachita - Ponca - Von - Chester - Triple Crown<br>,<b>Blueberries</b> (* = wholesale only) Star - Brightwell - Titan - Vernon<br>,<b>Cherries</b> Montmorency<br>,<b>Currants</b> Crandall - Red Lake - White Imperial<br>,,<b>Figs</b> Celeste<br>,,<b>Grapes</b> Cynthiana - Chardonel - Jupiter - Mars - Reliance - Vanessa<br>,<b>JuJubes</b> Lang - Li<br>,<b>Kiwi</b> Anna Hardy Female - Issai Hardy Female - Kens Red Hardy Female<br>,<b>Nectarines:</b> Sunglo<br>,,<b>Peaches</b> Loring - Redhaven - Redskin - Belle of Georgia<br>,<b>Pears</b> Kieffer - Moonglow - Seckel - Korean Giant (Olympic) - Shinko<br>,,<b>Plums</b> Methley - Ozark Premier - Santa Rosa<br>,<b>Raspberries</b> Latham - Jewel - Caroline - Heritage - Double Gold<br>,<b>Strawberries</b> Chandler - Sweet Charlie<br>,,,<b>Hazelnuts & Filberts</b> Jefferson<br>,,,,,,<b>Northern Pecan</b> Kanza - Pawnee<br>,,<b>Persian & Hardy English Walnuts: </b> White<br>,
-75.09207,39.579294,nursery_source,F,JA,Jersey Asparagus Farms Inc.,105 Porchtown Road,,Pittsgrove,NJ,8318,856-358-2548,856-358-6127,scott@walkerseed.com,http://www.walkerplants.com,./icons/none.png,./icons/smallfruit-icon.png,./icons/none.png,./icons/none.png,,,,,,,,,,,,,,,,,,,<b>Strawberries</b> Camino Real - Chandler - Flavorfest - Sweet Charlie<br>,,,,,,,,,,,,
-89.0095418,43.5352444,nursery_source,F,JW,J.W. Jung Seed Company,335 S High Street,,Randolph,WI,53957,800-247-5864,800-692-5864,info@jungseed.com,http://www.jungseed.com,./icons/treefruit-icon.png,./icons/smallfruit-icon.png,./icons/nut-icon.png,./icons/supplies-icon.png,<b>Apples</b> (* = disease resistant) Bonnie Best - CandyCrisp - Cortland - Honeycrisp<br>,<b>Blackberries</b> Chester - Triple Crown<br>,<b>Blueberries</b> (* = wholesale only) Blueray - Chandler - Patriot - Reka<br>,<b>Cherries</b> Black Gold - White Gold - Danube - Montmorency - North Star<br>,<b>Currants</b> Consort - Red Lake - Rovada - Pink Champagne<br>,,,<b>Gooseberries</b> Hinnomaki Red - Invicta - Pixwell - Tixia<br>,<b>Grapes</b> Frontenac Gris - Marquis - Reliance<br>,,,<b>Nectarines:</b> Hardired<br>,<b>Pawpaws</b> Shenandoah<br>,<b>Peaches</b> Contender - Madison - Reliance<br>,<b>Pears</b> Potomac - Seckel - Korean Giant (Olympic)<br>,<b>Persimmons</b> Meader - Nikita's Gift (Asian-American Hybrid)<br>,,<b>Raspberries</b> Boyne - Killarney - Latham - Nova - Prelude - Bristol  - Jewel - Caroline - Heritage - Joan J - Anne - Double Gold<br>,<b>Strawberries</b> Cavendish - Earliglow - Flavorfest - Honeoye - Jewel - AC Wendy - Albion - Ft. Laramie<br>,,,,,,,,,,,,
-86.1762655,42.085616,nursery_source,F,KP,"Krohne Plant Farms, Inc",65295 County Road,,Hartford,MI,49057,269-424-5423,269-424-3126,info@knohneplantfarms.com,https://www.krohneplantfarms.com/,./icons/none.png,./icons/smallfruit-icon.png,./icons/none.png,./icons/none.png,,,,,,,,,,,,,,,,,,,<b>Strawberries</b> Allstar - Cavendish - Earliglow - Flavorfest - Galletta - Honeoye - Jewel - AC Valley Sunset - AC Wendy - Albion<br>,,,,,,,,,,,,
-88.0585724,44.6652806,nursery_source,F,MV,Maple Valley Orchards & Nursery,4520 Hilltop Drive,,Suamico,WI,54173,920-412-5741,920-842-3204,info@maplevalleyorchards.com,http://www.maplevalleyorchards.com,./icons/treefruit-icon.png,./icons/none.png,./icons/none.png,./icons/none.png,"<b>Apples</b> (* = disease resistant) Antique, Hard Cider or Heirloom Cultivars - Arkansas Black - Cameo  - Empire - Enterprise * - Rising Sun Fuji - Brookfield Gala - GoldRush * - Granny Smith - Grimes Golden  - Jonagold  (Plant red strains) - Jonathan (Plant red strains) - King David ** - Mutsu (Crispin) - Pristine * - Red June (Carolina Red June) - Yellow Transparent<br>",,,,,,,,,,,,,,,,<b>Plums</b> Kenmore (NY9)<br>,,,,,,,,,,,,,,
-89.3109346,37.6832848,nursery_source,F,MN,McNitt Growers,78 Oak Ridge Lane,,Carbondale,IL,62903,618-687-3563,,info@mcnittgrowers.com,http://www.mcnittgrowers.com/,./icons/none.png,./icons/smallfruit-icon.png,./icons/none.png,./icons/none.png,,,,,,,,,,,,,,,,,,,<b>Strawberries</b> Camarosa - Chandler - Albion<br>,,,,,,,,,,,,
-122.1448601,40.1549353,nursery_source,F,NC,Norcal Nursery Inc,11810 Highway 99 E,P.O. Box 1012,Red Bluff,CA,96080,530-527-6200,530-527-2921,sales@norcalnursery.com,http://www.norcalnursery.com,./icons/none.png,./icons/smallfruit-icon.png,./icons/none.png,./icons/none.png,,,,,,,,,,,,,,,,,,,<b>Strawberries</b> Camarosa - Camino Real - Earliglow - Flavorfest - Jewel - Albion - San Andreas<br>,,,,,,,,,,,,
-86.0323424,37.4233737,nursery_source,F,NR,Nolin River Nut Tree Nursery,797 Port Wooden Road,,Upton,KY,42784,270-369-8551,,john.brittain@windstream.net,http://nolinnursery.com,./icons/none.png,./icons/none.png,./icons/nut-icon.png,./icons/none.png,,,,,,,,,,,,,<b>Pawpaws</b> Allegheny - Potomac - Shenandoah<br>,,,<b>Persimmons</b> Deer Magnet - Dollywood - Early Golden - Evelyn - F-39 (90 chromosome male pollinator) - Garretson - H-118 - Janet - John Rick - Morris Burton - Munich - Nikita's Gift (Asian-American Hybrid) - Prok - Valeene Beauty - Yates<br>,,,,,,,,<b>Hicans</b> Bixby - Burlington - Burton - Henke - McAllister - T-92<br>,,,<b>Hybrid Hickory</b> Mitch Russell<br>,<b>Northern Pecan</b> Green River - Hark - Kanza - Lakota - Major - Mandan - Nacono - Pawnee - Posey - Yates 68 - Yates 127<br>,,,
-72.5905978,42.4272704,nursery_source,F,NU,Nourse Farm Inc ,41 River Road,,South Deerfield,MA,1373,413-665-2658,413-665-7888,info@noursefarms.com,http://www.noursefarms.com,./icons/none.png,./icons/smallfruit-icon.png,./icons/none.png,./icons/none.png,,<b>Blackberries</b> Caddo - Natchez - Ouachita - Chester - Triple Crown - Prime ARK 45<br>,<b>Blueberries</b> (* = wholesale only) Bluecrop - Bluegold - Blueray - Chandler - Darrow - Duke - Elliott - Jersey - Patriot - Reka<br>,,<b>Currants</b> Jonkeer Van Tets - Rovada - Pink Champagne<br>,,,<b>Gooseberries</b> Hinnomaki Red - Invicta - Tixia<br>,,,,,,,,,,<b>Raspberries</b> AAC Eden - Boyne - Encore - Killarney - Latham - Nova - Prelude - Royalty - Bristol  - Jewel - Mac Black - BP-1 - Caroline - Heritage - Himbo Top - Joan J - Polana - Anne - Double Gold - Niwot<br>,<b>Strawberries</b> Allstar - Cabot - Cavendish - Clancy - Darselect - Earliglow - Flavorfest - Galletta - Honeoye - Jewel - Rutgers Scarlet - Sonata - AC Valley Sunset - AC Wendy - Albion - San Andreas<br>,,,,,,,,,,,,
-122.5267302,45.4757408,nursery_source,F,OG,One Green World,6469 SE 134th Ave,,Portland,OR,97236-4540,877-353-4028,800-418-9983,info@onwgreenworld.com,http://www.onegreenworld.com,./icons/treefruit-icon.png,./icons/smallfruit-icon.png,./icons/nut-icon.png,./icons/none.png,"<b>Apples</b> (* = disease resistant) Antique, Hard Cider or Heirloom Cultivars - Arkansas Black - Cortland - Empire - Enterprise * - Freedom * - Fuji - Gala - Golden Delicious (Yellow Delicious) - GoldRush * - Granny Smith - Honeycrisp - Jonagold  (Plant red strains) - Jonathan (Plant red strains) - Liberty * - Lodi - Melrose - Mutsu (Crispin) - Pink Lady (Cripps Pink) - Priscilla * - Rome - Roxbury Russet - Spartan * - WineCrisp * - Yellow Transparent - Rootstocks<br>",<b>Blackberries</b> Apache - Chester - Triple Crown - Prime ARK 45<br>,<b>Blueberries</b> (* = wholesale only) Aurora - Bluecrop - Bluejay - Blueray - Chandler - Darrow - Draper - Duke - Earliblue - Legacy - Liberty - Patriot - Spartan - Misty - Star<br>,<b>Cherries</b> Hartland - Kristin - Sam - White Gold - Danube<br>,<b>Currants</b> Crandall - Belaruskaja - Consort - Minaj Smeriou - Titania - Jonkeer Van Tets - Red Lake - Rovada - Primus - White Imperial - Pink Champagne<br>,<b>Elderberries</b> Adams #1 - Bob Gordon - Nova - Ranch - Wyldewood 1 - York<br>,<b>Figs</b> Celeste - Chicago Hardy<br>,<b>Gooseberries</b> Amish Red - Black Velvet - Captivator - Hinnomaki Red - Hinnomaki Yellow - Invicta - Jahns Prairie - Jeanne - Pixwell<br>,<b>Grapes</b> Concord - Concord - Mars - Reliance - Vanessa<br>,,,<b>Nectarines:</b> Fantasia - Flavortop - Hardired - Red Gold - Sunglo<br>,<b>Pawpaws</b> Allegheny - KSU - Atwood - KSU - Benson - KSU - Chappell  - Mango - Maria's Joy - NC-1 - Overleese - Pennsylvania Golden - Potomac - Shenandoah - Sunflower - Susquehanna - Tallahatchie - Wabash - Premium Seed<br>,<b>Peaches</b> Canadian Harmony - Contender - Redhaven - Reliance - Belle of Georgia<br>,<b>Pears</b> Honeysweet - Kieffer - Moonglow - Seckel - Korean Giant (Olympic) - Niitaka - Shinko<br>,<b>Persimmons</b> Early Golden - John Rick - Meader - Mohler<br>,,<b>Raspberries</b> Encore - Royalty - Heritage - Anne<br>,<b>Strawberries</b> Earliglow - Jewel - Albion<br>,,,<b>Hazelnuts & Filberts</b> Epsilon - Felix - Gamma - Jefferson - McDonald - Sacajawea - Wepster - Yamhill<br>,,,,,,,<b>Black Walnuts</b> Football - Hershey's - Meyers (Elmer Meyers)<br>,,
-84.5025523,37.4255521,nursery_source,F,PH,Peaceful Heritage Nursery,2670 Ky Hwy 39 S,,Crab Orchard,KY,40419,606-355-7242,,order@peacefulheritage.com,http://www.peacefulheritage.com,./icons/treefruit-icon.png,./icons/smallfruit-icon.png,./icons/nut-icon.png,./icons/supplies-icon.png,<b>Apples</b> (* = disease resistant) Arkansas Black - Crimson Crisp * - Enterprise * - Fuji - Golden Delicious (Yellow Delicious) - GoldRush * - Granny Smith - Honeycrisp - Liberty * - Mollies Delicious - Pink Lady (Cripps Pink) - Pixie Crunch * - Pristine * - Red Delicious - Redfree * - Yellow Transparent<br>,<b>Blackberries</b> Von - Triple Crown<br>,<b>Blueberries</b> (* = wholesale only) Bluecrop - Bluejay - Chandler - Duke - Patriot<br>,,,,<b>Figs</b> Celeste - Chicago Hardy<br>,,<b>Grapes</b> Concord - Concord - Reliance<br>,,,,<b>Pawpaws</b> Allegheny - KSU - Atwood - KSU - Benson - KSU - Chappell  - Mango - NC-1 - Overleese - Pennsylvania Golden - Potomac - Shenandoah - Summer Delight - Sunflower - Susquehanna - Tallahatchie - Wabash<br>,<b>Peaches</b> Candor - Contender - Redhaven - Redskin - Belle of Georgia<br>,<b>Pears</b> Ayers - Blake's Pride - Kieffer - Moonglow - Potomac - Sunrise - Korean Giant (Olympic) - Megietsu - Niitaka - Shinko<br>,<b>Persimmons</b> Prok - Rosseyanka (Asian-American Hybrid) - Yates<br>,<b>Plums</b> Ozark Premier<br>,,,,,,,,,,,,,,
-94.1635301,35.6553512,nursery_source,F,PN,Pense Nursery,2318 US 71,P.O. Box 449,Mountainburg,AR,72946,479-369-2494,,pensefarms1@hotmail.com,http://www.penseberryfarm.com,./icons/treefruit-icon.png,./icons/smallfruit-icon.png,./icons/none.png,./icons/none.png,<b>Apples</b> (* = disease resistant) Arkansas Black - Crimson Crisp * - Empire - Enterprise * - Fuji - Gala - Golden Delicious (Yellow Delicious) - GoldRush * - Granny Smith - Jonathan (Plant red strains) - Liberty * - Pristine * - Red Delicious - Redfree * - Sundance *<br>,<b>Blackberries</b> Apache - Caddo - Natchez - Osage - Ouachita - Ponca - Triple Crown - Prime ARK 45<br>,<b>Blueberries</b> (* = wholesale only) Bluecrop - Bluejay - Blueray - Chandler - Duke - Patriot - Climax<br>,<b>Cherries</b> Montmorency - North Star<br>,<b>Currants</b> Crandall - Red Lake - Primus - White Imperial - Pink Champagne<br>,<b>Elderberries</b> Adams #1 - Bob Gordon - Johns - Nova - Ranch - Wyldewood 1 - York<br>,<b>Figs</b> Celeste<br>,<b>Gooseberries</b> Black Velvet - Captivator - Pixwell<br>,<b>Grapes</b> Concord - Frontenac - Catawba - Vidal blanc - Concord - Mars - Reliance - Vanessa<br>,,<b>Kiwi</b> Anna Hardy Female - Hardy Kiwi Male - Issai Hardy Female - Kens Red Hardy Female<br>,,,<b>Peaches</b> Contender - Cresthaven - Gloria - Loring - Redhaven - White River<br>,<b>Pears</b> Kieffer - Moonglow - Korean Giant (Olympic)<br>,,<b>Plums</b> Methley - Santa Rosa<br>,<b>Raspberries</b> Boyne - Encore - Killarney - Latham - Nova - Prelude - Jewel - BP-1 - Caroline - Heritage - Himbo Top - Joan J - Polana - Anne - Double Gold - Niwot<br>,<b>Strawberries</b> Chandler - Earliglow - Honeoye - Jewel<br>,,,,,,,,,,,,
-77.7388818,39.3253786,nursery_source,F,PT,Peterson Pawpaws,P.O. Box 1011,,Harpers Ferry,WV,25425,304-535-3125,,,http://www.petersonpawpaws.com,./icons/none.png,./icons/smallfruit-icon.png,./icons/none.png,./icons/none.png,,,,,,,,,,,,,<b>Pawpaws</b> Allegheny - Potomac - Shenandoah - Susquehanna - Tallahatchie - Wabash<br>,,,,,,,,,,,,,,,,,,
-86.39019,36.4794313,nursery_source,F,RB,Rock Bridge Trees,199 Dry Fork Creek Road,,Bethpage,TN,37022,615-841-3664,,,http://www.rockbridgetrees.com,./icons/treefruit-icon.png,./icons/smallfruit-icon.png,./icons/nut-icon.png,./icons/none.png,<b>Apples</b> (* = disease resistant) Fuji - Ginger Gold - Golden Delicious (Yellow Delicious) - GoldRush * - Jonagold  (Plant red strains) - Jonamac - Melrose - Pink Lady (Cripps Pink) - Redfree * - Yellow Transparent<br>,<b>Blackberries</b> Triple Crown<br>,,,,<b>Elderberries</b> Adams II - Bob Gordon - Marge - Wyldewood 1 - York<br>,,,,,,,<b>Pawpaws</b> Overleese - NC-1 - Pennsylvania Golden - Sunflower<br>,,<b>Pears</b> Potomac - Seckel - Korean Giant (Olympic)<br>,,,,,,,,,<b>Hicans</b> Burton - T-92<br>,<b>Shagbark Hickory</b> Cody Cox - Grainger - J. Yoder #1 - Porter<br>,<b>Shellbark Hickory</b> Fayette - Longnecker - Selbehers - Simpson #1<br>,,<b>Northern Pecan</b> Bean - Green River - Hark - Kanza - Lakota - Major - Mandan - Pawnee - Posey - Yates 68 - Yates 127<br>,,,
-122.4120622,46.5886663,nursery_source,F,RT,Raintree Nursery,391 Butts Road,,Morton,WA,98356,800-391-8892,888-770-8358,customerservice@raintreenursery.com,http://www.raintreenursery.com,./icons/treefruit-icon.png,./icons/smallfruit-icon.png,./icons/nut-icon.png,./icons/supplies-icon.png,"<b>Apples</b> (* = disease resistant) Antique, Hard Cider or Heirloom Cultivars - Arkansas Black - Dayton * - Enterprise * - Honeycrisp - Jonagold  (Plant red strains) - Liberty * - Pristine * - Shizuka - Spartan * - Zestar! - Rootstocks<br>",<b>Blackberries</b> Osage - Triple Crown - Prime-Ark Traveler<br>,<b>Blueberries</b> (* = wholesale only) Bluecrop - Bluegold - Blueray - Chandler - Darrow - Earliblue - Jersey - Liberty - Reka - Misty<br>,<b>Cherries</b> Hartland - Kristin - Danube - Montmorency<br>,<b>Currants</b> Crandall - Redstart<br>,<b>Elderberries</b> Johns - Nova - Wyldewood 1<br>,<b>Figs</b> Chicago Hardy<br>,<b>Gooseberries</b> Black Velvet - Captivator - Hinnomaki Red - Hinnomaki Yellow - Invicta - Jahns Prairie - Pixwell - Poorman - Tixia<br>,<b>Grapes</b> Regent - Buffalo<br>,<b>JuJubes</b> Lang - Li<br>,<b>Kiwi</b> Ananasnaya Female - Chang Bai Hardy - Kens Red Hardy Female<br>,<b>Nectarines:</b> Hardired<br>,<b>Pawpaws</b> Pennsylvania Golden - Shenandoah - Sunflower - Susquehanna<br>,<b>Peaches</b> White Lady<br>,<b>Pears</b> Ayers - Blake's Pride - Honeysweet - Seckel - Korean Giant (Olympic)<br>,<b>Persimmons</b> Nikita's Gift (Asian-American Hybrid)<br>,<b>Plums</b> Methley - Shiro - Blues Jam - Seneca - Stanley<br>,,<b>Strawberries</b> Albion<br>,,,<b>Hazelnuts & Filberts</b> Wepster<br>,,,,,,,,<b>Persian & Hardy English Walnuts: </b>Ambassador<br>,
-94.1750099,35.6008438,nursery_source,F,SI,Simmons Plant Farm,11542 N Hwy 71,,Mountainburg,AR,72946,479-369-2345,479-369-2345,simmonsplantfarm@hotmail.com,http://www.simmonsplantfarm.com,./icons/none.png,./icons/smallfruit-icon.png,./icons/none.png,./icons/none.png,,<b>Blackberries</b> Chickasaw - Apache - Natchez - Osage - Ouachita - Ponca - Triple Crown - Prime ARK 45 - Prime-Ark Traveler<br>,<b>Blueberries</b> (* = wholesale only) Bluecrop - Bluejay - Blueray - Duke - Legacy - Ozarkblue - Brightwell - Climax - Delite<br>,,,,,,<b>Grapes</b> Concord - Cynthiana - Catawba - Concord - Mars - Reliance - Vanessa<br>,,,,,,,,,,,,,,,,,,,,,,
-75.031408,44.684765,nursery_source,F,SL,St. Lawrence Nurseries,325 NY-345,P.O. Box 957,Potsdam,NY,13676,315-261-1925,,connor@stlawrencenurseries.com,http://www.stlawrencenurseries.com,./icons/treefruit-icon.png,./icons/smallfruit-icon.png,./icons/none.png,./icons/none.png,"<b>Apples</b> (* = disease resistant) Antique, Hard Cider or Heirloom Cultivars - Cameo  - Cortland - Early Cortland - Early Harvest - Empire - Enterprise * - Freedom * - Ginger Gold - Grimes Golden  - Honeycrisp - Liberty * - Lodi - Paulared - Priscilla * - Red June (Carolina Red June) - Regent - Spartan * - Yellow Transparent - Zestar!<br>",,<b>Blueberries</b> (* = wholesale only) Bluegold - Patriot<br>,,<b>Currants</b> Crandall - Consort - Titania - Red Lake - White Imperial<br>,<b>Elderberries</b> Adams #1 - Johns - Nova - York<br>,,<b>Gooseberries</b> Pixwell<br>,,,,,,,<b>Pears</b> Tyson<br>,,,<b>Raspberries</b> Boyne - Killarney<br>,,,,,,,,,,,,,
-91.0823388,39.4277938,nursery_source,F,ST,Stark Brothers Nurseries & Orchards Co,20947 us-54,P.O. Box 1800,Louisiana,MO,63353,800-325-4180,888-485-3220,info@starkbros.com,http://www.starkbros.com,./icons/treefruit-icon.png,./icons/smallfruit-icon.png,./icons/nut-icon.png,./icons/supplies-icon.png,<b>Apples</b> (* = disease resistant) Arkansas Black - Blondee - CandyCrisp - Cortland - Empire - Royal Empire - Enterprise * - Freedom * - Fuji - September Wonder Fuji - Gala - Buckeye Gala (Simmons Cultivar) - Golden Delicious (Yellow Delicious) - GoldRush * - Granny Smith - Grimes Golden  - Honeycrisp - Jonafree *  - Jonagold  (Plant red strains) - Liberty * - Mutsu (Crispin) - Pink Lady (Cripps Pink) - Pristine * - Red Delicious - Starkrimson Red Delicious - Starkspur Rome - Suncrisp - WineCrisp * - York (York Imperial) - Zestar!<br>,<b>Blackberries</b> Chickasaw - Natchez - Ouachita - ST - Triple Crown - Prime ARK 45 - Prime-Ark Traveler - Stark Black Gem<br>,<b>Blueberries</b> (* = wholesale only) Bluecrop - Bluejay - Blueray - Chandler - Darrow - Duke - Earliblue - Elliott - Patriot - Misty<br>,<b>Cherries</b> EbonyPearl - Hedelfingen - Kristin - Regina - Sam - White Gold - Balaton - Montmorency - North Star<br>,<b>Currants</b> Consort - Red Lake<br>,<b>Elderberries</b> Adams #1 - Bob Gordon - Johns - Nova - Ranch - Wyldewood 1 - York<br>,<b>Figs</b> Celeste - Chicago Hardy<br>,<b>Gooseberries</b> Hinnomaki Red - Invicta - Pixwell<br>,<b>Grapes</b> Frontenac - Golden Muscat - Marquis<br>,,<b>Kiwi</b> Anna Hardy Female - Hardy Kiwi Male - Issai Hardy Female<br>,<b>Nectarines:</b> Fantasia - Hardired - Mericrest - Red Gold - Sunglo<br>,<b>Pawpaws</b> Mango - NC-1 - Pennsylvania Golden - Potomac - Shenandoah - Sunflower - Susquehanna - Wabash<br>,<b>Peaches</b> Canadian Harmony - Contender - Cresthaven - Earlystar - Intrepid - July Prince - Loring - PF 17 Flamin'Fury - PF 19-007 Flamin' Fury - PF 28-007 Flamin' Fury - PF 8 Ball Flamin' Fury - PF Lucky 13 Flamin' Fury - Redhaven - Reliance - Sentry - Belle of Georgia - Blushingstar<br>,<b>Pears</b> Blake's Pride - Honeysweet - Moonglow - Seckel - Shenandoah - Sunrise<br>,<b>Persimmons</b> Yates<br>,<b>Plums</b> Methley - Ozark Premier - Santa Rosa - Shiro - Blue Damson - Stanley<br>,<b>Raspberries</b> Encore - Killarney - Latham - Prelude - Royalty - Bristol  - Jewel - Caroline - Crimson Night - Heritage - Himbo Top - Joan J - Anne - Double Gold<br>,<b>Strawberries</b> Allstar - Cabot - Clancy - Earliglow - Honeoye - Jewel<br>,,<b>Chinese Chestnuts</b> Eaton River - Qing<br>,,,,,,,<b>Northern Pecan</b> Colby - Hardy - Kanza - Lakota - Pawnee<br>,,<b>Persian & Hardy English Walnuts: </b>Lake<br>,
-85.9122626,42.2155227,nursery_source,F,SU,Summit Tree Sales,37456 Red Arrow Highway,,Paw Paw,MI,49079,800-424-2765,,summit@summittreesales.com,http://www.summittreesales.com,./icons/treefruit-icon.png,./icons/none.png,./icons/none.png,./icons/supplies-icon.png,"<b>Apples</b> (* = disease resistant) Antique, Hard Cider or Heirloom Cultivars - Arkansas Black - Bakers Delight - Blondee - Bonnie Best - Cameo  - Red Cameo - CandyCrisp - Cortland - Redcort Cortland - Royal Court  - Crimson Crisp * - Crunch-A-Bunch - Dayton * - Earligold - Empire - Crown Empire - Royal Empire - Enterprise * - EverCrisp - Freedom * - Fuji - Auvil Early Fuji - Aztec Fuji - Banning Red Fuji - Daybreak Fuji - Myra Red Fuji - Rising Sun Fuji - September Wonder Fuji - Sun Fuji - Top Export Fuji - Gala - Autumn Gala - Brookfield Gala - Buckeye Gala (Simmons Cultivar) - Crimson Gala - Fulford Gala - Gale Gala - Grand Gala - Imperial Gala - Pacific Gala - Wildfire Gala - Ginger Gold - Gibson Strain - Golden Supreme - GoldRush * - Granny Smith - Grimes Golden  - Honeycrisp - Firestorm - Royal Red Honeycrisp<br> Jonafree *  - Jonagold  (Plant red strains) - Jonagold De Coster - Jonagold Supra - Jonagored - Jonastar - Red Jonaprince - Rubinstar Jonagold - Jonamac - Jonathan (Plant red strains) - Improved Red Jonathan - Lucky Jon Jonathan - Ruby Jon - Liberty * - Lodi - Ludacrisp - RubyMac - Mollies Delicious - Melrose - Mutsu (Crispin) - Nittany - Paulared - Pink Lady (Cripps Pink) - Barnsby Cultivar - Lady in Red - Pixie Crunch * - Pristine * - Red Delicious - Earlichief Red Delicious - Early Red One Red Delicious - Midnight Red Spur Red Delicious - Scarlet Spur II Red Delicious - Red Chief 2000 - Schlect Spur - Super Chief Red Delicious - Redfield ** - Redfree * - Law Red Rome - Lawspur - Red Rome Beauty (Law) - Rosalee - Roxbury Russet - Shizuka - Spartan * - Summerset - Suncrisp - Sundance * - Sweet Zinger - WineCrisp * - Yellow Transparent - York (York Imperial) - Red Yorking - Zestar! - Rootstocks -",,,<b>Cherries</b> Black Gold - Black Pearl - EbonyPearl - Hartland - Hedelfingen - Kristin - Regina - Sam - White Gold - Balaton - Danube - Montmorency - North Star<br>,,,,,,,,<b>Nectarines:</b> Brigantine - Easternglo - Fantasia - Firebrite - Flavortop - Hardired - Mericrest - Red Gold - Sunglo - Arctic Glo<br>,,<b>Peaches</b> Allstar - Autumnstar - Biscoe - Blazingstar - Bounty - Canadian Harmony - Candor - Contender - Coralstar - Cresthaven - Earlystar - Encore - Ernie's Choice - Flame Prince - Garnet Beauty  - Glohaven - Glowingstar - Harrow Diamond - Intrepid - Jerseyglo - John Boy - John Boy II - July Prince - Laurol - Loring - Madison - PF 1 Flamin' Fury - PF 7 Flamin' Fury - PF 15A Flamin' Fury - PF 17 Flamin'Fury - PF 19-007 Flamin' Fury - PF 20-007 Flamin' Fury - PF 23 Flamin' Fury - PF 24C Flamin' Fury - PF 25 Flamin' Fury - PF 27A Flamin' Fury - PF 28-007 Flamin' Fury - PF 35-007 Flamin' Fury - PF 5B Flamin' Fury - PF 5D Big Flamin' Fury - PF Big George Flamin'Fury - PF 8 Ball Flamin' Fury - PF 9A-007 Flamin' Fury - PF Lucky 13 Flamin' Fury - PF Lucky 24B Flamin' Fury - Redhaven - Redskin - Reliance - Risingstar - Sentry - Starfire<br> Summer Serenade - Belle of Georgia - Blushingstar - N.J. 252 - Raritan Rose - Snow Giant - Sugar Giant - Sugar May - White Lady -,<b>Pears</b> Blake's Pride - Honeysweet - Kieffer - Moonglow - Potomac - Seckel - Shenandoah - Korean Giant (Olympic) - Niitaka - Shinko<br>,,<b>Plums</b> Methley - Ozark Premier - Queen Rosa - Ruby Queen - Santa Rosa - Shiro - Bluebyrd - Bluefre - Blues Jam - Castleton - Damson - Shropshire Damson - Kenmore (NY9) - Long John - President - Seneca - Stanley<br>,,,,,,,,,,,,,,
-122.839419,45.100344,nursery_source,F,TC,TRECO Oregon Rootstock and Tree Co,10906 Monitor-McKee Road,P.O. Box 98,Woodburn,OR,97071,503-634-2209,503-634-2344,,http://www.treco.nu,./icons/treefruit-icon.png,./icons/none.png,./icons/nut-icon.png,./icons/none.png,,,,,,,,,,,,,,,,,,,,,,<b>Hazelnuts & Filberts</b> Dorris - Eta - Felix - Jefferson - McDonald - Wepster<br>,,,,,,,,,
-85.7932488,35.8049002,nursery_source,F,VU,Vaughn Nursery,8678 Smithville Hwy,,McMinnville,TN,37110,931-934-2715,931-934-2724,vaughnnursery@blomand.net,http://www.vaughnnursery.com,./icons/treefruit-icon.png,./icons/none.png,./icons/none.png,./icons/none.png,<b>Apples</b> (* = disease resistant) Arkansas Black - Earligold - Empire - Fuji - Gala - Golden Delicious (Yellow Delicious) - Granny Smith - Honeycrisp - Jonathan (Plant red strains) - Liberty * - Lodi - Mollies Delicious - Mutsu (Crispin) - Pink Lady (Cripps Pink) - Early Red One Red Delicious - Redfield ** - Roxbury Russet - Shizuka<br>,,,,,,,,,,,<b>Nectarines:</b> Red Gold<br>,,<b>Peaches</b> Augustprince - Autumnprince - Blaze Prince - Bounty - Contender - Cresthaven - Encore - Fireprince - Flame Prince - Intrepid - July Prince - Loring - Redhaven - Redskin - Scarlet Prince - Belle of Georgia<br>,<b>Pears</b> Ayers - Kieffer - Moonglow<br>,,<b>Plums</b> Methley - Ozark Premier - Ruby Queen - Santa Rosa<br>,,,,,,,,,,,,,,
-86.1989049,37.3881901,nursery_source,F,VM,Van Meter Family Farm,164 Old Peonia Loop Rd.,,Clarkson,KY,42726,270-963-2320,,vanmeterfamilyfarm@gmail.com,,./icons/none.png,./icons/smallfruit-icon.png,./icons/none.png,./icons/none.png,,,,,,,,,,,,,,,,,,,<b>Strawberries</b> Camarosa - Camino Real - Chandler - Redchief - Sweet Charlie<br>,,,,,,,,,,,,
-120.2310013,47.4067955,nursery_source,F,VW,Van Well Nursery,2821 Grant Road,P.O. Box 1339,East Wenatchee,WA,98802,509-886-8189,509-886-0294,vanwell@vanwell.net,http://www.vanwell.net,./icons/treefruit-icon.png,./icons/none.png,./icons/none.png,./icons/none.png,<b>Apples</b> (* = disease resistant) Ambrosia - Arkansas Black - Red Cameo - Royal Court  - Crimson Crisp * - Royal Empire - EverCrisp - Auvil Early Fuji - Aztec Fuji - Gale Gala - Ginger Gold - Gibson Strain - Granny Smith - Honeycrisp - Royal Red Honeycrisp - Red Jonaprince - Jonamac - Ruby Jon - RubyMac - Mutsu (Crispin) - Pink Lady (Cripps Pink) - Lady in Red - Scarlet Spur II Red Delicious - Super Chief Red Delicious - Rootstocks<br>,,,<b>Cherries</b> Black Pearl - White Gold<br>,,,,,,,,<b>Nectarines:</b> Fantasia - Firebrite - Flavortop - Red Gold - Arctic Glo<br>,,<b>Peaches</b> Allstar - Autumnstar - Blazingstar - Canadian Harmony - Coralstar - Cresthaven - Early Redhaven - Glohaven - Gloria - Glowingstar - Loring - Madison - PF Lucky 13 Flamin' Fury - Redhaven - Reliance - Risingstar - Starfire - Belle of Georgia - Blushingstar - White Lady<br>,<b>Pears</b> Seckel<br>,,<b>Plums</b> Santa Rosa - Shiro - Kenmore (NY9) - President - Stanley<br>,,,,,,,,,,,,,,
-76.8749055,43.2643113,nursery_source,F,WN,Wafler Nursery,10748 Slaght Road,,Wolcott,NY,14590,877-397-0874,,,http://www.waflernursery.com,./icons/treefruit-icon.png,./icons/none.png,./icons/none.png,./icons/supplies-icon.png,<b>Apples</b> (* = disease resistant) Ambrosia - Bakers Delight - Royal Court  - Crunch-A-Bunch - Earligold - Royal Empire - Enterprise * - EverCrisp - Rising Sun Fuji - September Wonder Fuji - Sun Fuji - Buckeye Gala (Simmons Cultivar) - Imperial Gala - Honeycrisp - Ludacrisp - Pink Lady (Cripps Pink) - Rome - Rosalee - Summerset - Sweet Zinger - WineCrisp * - Yellow Transparent - Zestar!<br>,,,,,,,,,,,,,,<b>Pears</b> Seckel<br>,,,,,,,,,,,,,,,,
-123.1100232,44.9865308,nursery_source,F,WF,Whitman Farms,3995 Gibson Road NW,,Salem ,OR,97304,503-585-8728,503-363-5020,lucile@whitmanfarms.com,http://www.whitmanfarms.com,./icons/none.png,./icons/smallfruit-icon.png,./icons/nut-icon.png,./icons/none.png,,,,,<b>Currants</b> Crandall - Consort - Minaj Smeriou - Titania - Jonkeer Van Tets - Red Lake - Redstart - Rolam - Rovada - Primus - White Imperial<br>,,<b>Figs</b> Chicago Hardy<br>,Amish Red - Black Velvet - Captivator - Hinnomaki Red - Hinnomaki Yellow - Invicta - Jahns Prairie - Jeanne - Pixwell - Poorman<br>,Marquis<br>,,<b>Kiwi</b> Ananasnaya Female - Hardy Kiwi Male - Kens Red Hardy Female<br>,,<b>Pawpaws</b> Sunflower<br>,,,,,,,,,,,,,,,,,,
-119.5667123,47.1633935,nursery_source,F,WD,Willow Drive Nursery,3560 Road 5 NW,,Ephrata,WA,98823,509-787-1555,,jimadams@willowdrive.com,http://www.willowdrive.com,./icons/treefruit-icon.png,./icons/none.png,./icons/none.png,./icons/none.png,<b>Apples</b> (* = disease resistant) Ambrosia - Royal Court  - EverCrisp - Aztec Fuji - Gala - Brookfield Gala - Buckeye Gala (Simmons Cultivar) - Ultima Gala - Wildfire Gala - Smoothie - Granny Smith - Honeycrisp - Royal Red Honeycrisp - Jonastar - Lady in Red - Summerset<br>,,,<b>Cherries</b> Black Pearl - EbonyPearl - Balaton - Montmorency<br>,,,,,,,,,,,,,,,,,,,,,,,,,,,
